[{"OBJECT_NAME":"GJZ 05","OBJECT_ID":"2024-238E","EPOCH":"2026-03-09T22:58:46.488864","MEAN_MOTION":13.75189396,"ECCENTRICITY":0.0008393,"INCLINATION":59.9108,"RA_OF_ASC_NODE":211.3299,"ARG_OF_PERICENTER":266.3765,"MEAN_ANOMALY":93.6283,"EPHEMERIS_TYPE":0,"CLASSIFICATION_TYPE":"U","NORAD_CAT_ID":62294,"ELEMENT_SET_NO":999,"REV_AT_EPOCH":6226,"BSTAR":9.3425993e-5,"MEAN_MOTION_DOT":-2.9e-7,"MEAN_MOTION_DDOT":0},{"OBJECT_NAME":"FENGYUN 1C DEB","OBJECT_ID":"1999-025DAM","EPOCH":"2026-03-09T14:33:40.868928","MEAN_MOTION":14.17069467,"ECCENTRICITY":0.023303,"INCLINATION":96.7094,"RA_OF_ASC_NODE":200.7432,"ARG_OF_PERICENTER":37.4826,"MEAN_ANOMALY":324.235,"EPHEMERIS_TYPE":0,"CLASSIFICATION_TYPE":"U","NORAD_CAT_ID":32425,"ELEMENT_SET_NO":999,"REV_AT_EPOCH":70765,"BSTAR":0.00038789,"MEAN_MOTION_DOT":9.9e-6,"MEAN_MOTION_DDOT":0}]
